{"fetched_at":"2026-03-29T16:36:15Z","count":15609,"tles":[{"name":"STARLINK-33816","line1":"1 63677U 25085P   26087.81789063  .00022199  00000+0  81319-3 0  9991","line2":"2 63677  42.9994 283.0408 0001159 276.7480  83.3240 15.27604771 51896","category":"Starlink"}]}