{
  "norad_id": 63677,
  "name": "STARLINK-33816",
  "history": [
    {
      "epoch": "2026-03-28T19:37:45.750432Z",
      "apogee_km": 483.7701266285994,
      "perigee_km": 482.17972088467377,
      "latitude_deg": 2.1624030131201636e-05,
      "longitude_deg": 162.36731057617385,
      "height_km": 482.6579181812723,
      "semi_major_axis_km": 6861.111923756636,
      "eccentricity": 0.0001159,
      "inclination_deg": 42.9994,
      "raan_deg": 283.0408,
      "arg_perigee_deg": 276.748,
      "mean_anomaly_deg": 83.324,
      "mean_motion_rev_day": 15.27604771
    }
  ]
}